ATLAS CENTAUR R/B       
1 06155U 72065B   25347.33552547  .00002411  00000+0  33342-3 0  9997
2 06155  35.0013  91.7067 0033874   2.5813 357.5058 14.77413278828482
SL-8 R/B                
1 08459U 75112B   25347.24793857  .00000444  00000+0  15474-3 0  9993
2 08459  74.0589 177.9234 0016608 289.2000  70.7356 14.38145610619441
SL-3 R/B                
1 10114U 77057B   25347.27487654  .00018620  00000+0  42427-3 0  9995
2 10114  97.5684 150.6235 0006515 230.4118 129.6554 15.42965751654996
SEASAT 1                
1 10967U 78064A   25346.82064302  .00000705  00000+0  23585-3 0  9990
2 10967 108.0116 303.2036 0001626 250.4919 109.6051 14.46062090493958
SL-14 R/B               
1 11267U 79011B   25347.25757142  .00000948  00000+0  91372-4 0  9995
2 11267  82.5233 178.5532 0015855 351.7467   8.3489 14.91770743515893
SL-8 R/B                
1 11574U 79089B   25347.18309904  .00000449  00000+0  14394-3 0  9996
2 11574  74.0692 251.1586 0014460  85.3338 274.9470 14.42284340423634
SL-14 R/B               
1 11672U 80005B   25347.21389345  .00000887  00000+0  87373-4 0  9990
2 11672  82.5149  29.2498 0017364  92.0321 268.2887 14.90792971463609
SL-8 R/B                
1 12139U 81003B   25347.33525738  .00024017  00000+0  63647-3 0  9997
2 12139  82.9304   9.6554 0279456 118.1639 244.8126 15.07065610301658
SL-3 R/B                
1 12465U 81046B   25347.27932662  .00016952  00000+0  42649-3 0  9995
2 12465  81.2333  33.2926 0018785 322.4476  37.5452 15.39624923425126
SL-3 R/B                
1 12904U 81103B   25347.31823935  .00010196  00000+0  46796-3 0  9995
2 12904  81.1592 314.6763 0011753 210.9051 149.1489 15.20246047960102
SL-3 R/B                
1 13068U 82013B   25347.23546926  .00007816  00000+0  34761-3 0  9995
2 13068  81.1750 262.0293 0024046 109.2388 251.1448 15.21095315391205
SL-3 R/B                
1 13154U 82039B   25347.30216316  .00005141  00000+0  31591-3 0  9991
2 13154  81.1718 315.4504 0029640 250.4182 109.3843 15.09533234368603
