CCSDS_OMM_VERS = 2.0
CREATION_DATE  = 
ORIGINATOR     = 

OBJECT_NAME    = ATLAS CENTAUR R/B
OBJECT_ID      = 1972-065B
CENTER_NAME    = EARTH
REF_FRAME      = TEME
TIME_SYSTEM    = UTC
MEAN_ELEMENT_THEORY = SGP/SGP4

EPOCH          = 2025-12-13T08:03:09.400608
MEAN_MOTION    = 14.77413278
ECCENTRICITY   = .00338743
INCLINATION    = 35.0013
RA_OF_ASC_NODE = 91.7067
ARG_OF_PERICENTER = 2.5813
MEAN_ANOMALY   = 357.5058

EPHEMERIS_TYPE = 0
CLASSIFICATION_TYPE = U
NORAD_CAT_ID   = 6155
ELEMENT_SET_NO = 999
REV_AT_EPOCH   = 82848
BSTAR          = .33342E-3
MEAN_MOTION_DOT = .2411E-4
MEAN_MOTION_DDOT = 0

CCSDS_OMM_VERS = 2.0
CREATION_DATE  = 
ORIGINATOR     = 

OBJECT_NAME    = SL-8 R/B
OBJECT_ID      = 1975-112B
CENTER_NAME    = EARTH
REF_FRAME      = TEME
TIME_SYSTEM    = UTC
MEAN_ELEMENT_THEORY = SGP/SGP4

EPOCH          = 2025-12-13T05:57:01.892448
MEAN_MOTION    = 14.38145610
ECCENTRICITY   = .00166086
INCLINATION    = 74.0589
RA_OF_ASC_NODE = 177.9234
ARG_OF_PERICENTER = 289.2000
MEAN_ANOMALY   = 70.7356

EPHEMERIS_TYPE = 0
CLASSIFICATION_TYPE = U
NORAD_CAT_ID   = 8459
ELEMENT_SET_NO = 999
REV_AT_EPOCH   = 61944
BSTAR          = .15474359E-3
MEAN_MOTION_DOT = .444E-5
MEAN_MOTION_DDOT = 0

CCSDS_OMM_VERS = 2.0
CREATION_DATE  = 
ORIGINATOR     = 

OBJECT_NAME    = SL-3 R/B
OBJECT_ID      = 1977-057B
CENTER_NAME    = EARTH
REF_FRAME      = TEME
TIME_SYSTEM    = UTC
MEAN_ELEMENT_THEORY = SGP/SGP4

EPOCH          = 2025-12-13T06:35:49.333056
MEAN_MOTION    = 15.42965751
ECCENTRICITY   = .0006515
INCLINATION    = 97.5684
RA_OF_ASC_NODE = 150.6235
ARG_OF_PERICENTER = 230.4118
MEAN_ANOMALY   = 129.6554

EPHEMERIS_TYPE = 0
CLASSIFICATION_TYPE = U
NORAD_CAT_ID   = 10114
ELEMENT_SET_NO = 999
REV_AT_EPOCH   = 65499
BSTAR          = .42427036E-3
MEAN_MOTION_DOT = .1862E-3
MEAN_MOTION_DDOT = 0

CCSDS_OMM_VERS = 2.0
CREATION_DATE  = 
ORIGINATOR     = 

OBJECT_NAME    = SEASAT 1
OBJECT_ID      = 1978-064A
CENTER_NAME    = EARTH
REF_FRAME      = TEME
TIME_SYSTEM    = UTC
MEAN_ELEMENT_THEORY = SGP/SGP4

EPOCH          = 2025-12-12T19:41:43.556928
MEAN_MOTION    = 14.46062090
ECCENTRICITY   = .00016261
INCLINATION    = 108.0116
RA_OF_ASC_NODE = 303.2036
ARG_OF_PERICENTER = 250.4919
MEAN_ANOMALY   = 109.6051

EPHEMERIS_TYPE = 0
CLASSIFICATION_TYPE = U
NORAD_CAT_ID   = 10967
ELEMENT_SET_NO = 999
REV_AT_EPOCH   = 49395
BSTAR          = .23585411E-3
MEAN_MOTION_DOT = .705E-5
MEAN_MOTION_DDOT = 0

CCSDS_OMM_VERS = 2.0
CREATION_DATE  = 
ORIGINATOR     = 

OBJECT_NAME    = SL-14 R/B
OBJECT_ID      = 1979-011B
CENTER_NAME    = EARTH
REF_FRAME      = TEME
TIME_SYSTEM    = UTC
MEAN_ELEMENT_THEORY = SGP/SGP4

EPOCH          = 2025-12-13T06:10:54.170688
MEAN_MOTION    = 14.91770743
ECCENTRICITY   = .00158553
INCLINATION    = 82.5233
RA_OF_ASC_NODE = 178.5532
ARG_OF_PERICENTER = 351.7467
MEAN_ANOMALY   = 8.3489

EPHEMERIS_TYPE = 0
CLASSIFICATION_TYPE = U
NORAD_CAT_ID   = 11267
ELEMENT_SET_NO = 999
REV_AT_EPOCH   = 51589
BSTAR          = .91371584E-4
MEAN_MOTION_DOT = .948E-5
MEAN_MOTION_DDOT = 0

CCSDS_OMM_VERS = 2.0
CREATION_DATE  = 
ORIGINATOR     = 

OBJECT_NAME    = SL-8 R/B
OBJECT_ID      = 1979-089B
CENTER_NAME    = EARTH
REF_FRAME      = TEME
TIME_SYSTEM    = UTC
MEAN_ELEMENT_THEORY = SGP/SGP4

EPOCH          = 2025-12-13T04:23:39.757056
MEAN_MOTION    = 14.42284340
ECCENTRICITY   = .00144609
INCLINATION    = 74.0692
RA_OF_ASC_NODE = 251.1586
ARG_OF_PERICENTER = 85.3338
MEAN_ANOMALY   = 274.9470

EPHEMERIS_TYPE = 0
CLASSIFICATION_TYPE = U
NORAD_CAT_ID   = 11574
ELEMENT_SET_NO = 999
REV_AT_EPOCH   = 42363
BSTAR          = .14393987E-3
MEAN_MOTION_DOT = .449E-5
MEAN_MOTION_DDOT = 0

CCSDS_OMM_VERS = 2.0
CREATION_DATE  = 
ORIGINATOR     = 

OBJECT_NAME    = SL-14 R/B
OBJECT_ID      = 1980-005B
CENTER_NAME    = EARTH
REF_FRAME      = TEME
TIME_SYSTEM    = UTC
MEAN_ELEMENT_THEORY = SGP/SGP4

EPOCH          = 2025-12-13T05:08:00.394080
MEAN_MOTION    = 14.90792971
ECCENTRICITY   = .00173649
INCLINATION    = 82.5149
RA_OF_ASC_NODE = 29.2498
ARG_OF_PERICENTER = 92.0321
MEAN_ANOMALY   = 268.2887

EPHEMERIS_TYPE = 0
CLASSIFICATION_TYPE = U
NORAD_CAT_ID   = 11672
ELEMENT_SET_NO = 999
REV_AT_EPOCH   = 46360
BSTAR          = .87372798E-4
MEAN_MOTION_DOT = .887E-5
MEAN_MOTION_DDOT = 0

CCSDS_OMM_VERS = 2.0
CREATION_DATE  = 
ORIGINATOR     = 

OBJECT_NAME    = SL-8 R/B
OBJECT_ID      = 1981-003B
CENTER_NAME    = EARTH
REF_FRAME      = TEME
TIME_SYSTEM    = UTC
MEAN_ELEMENT_THEORY = SGP/SGP4

EPOCH          = 2025-12-13T08:02:46.237632
MEAN_MOTION    = 15.07065610
ECCENTRICITY   = .02794567
INCLINATION    = 82.9304
RA_OF_ASC_NODE = 9.6554
ARG_OF_PERICENTER = 118.1639
MEAN_ANOMALY   = 244.8126

EPHEMERIS_TYPE = 0
CLASSIFICATION_TYPE = U
NORAD_CAT_ID   = 12139
ELEMENT_SET_NO = 999
REV_AT_EPOCH   = 30165
BSTAR          = .63647114E-3
MEAN_MOTION_DOT = .24017E-3
MEAN_MOTION_DDOT = 0

CCSDS_OMM_VERS = 2.0
CREATION_DATE  = 
ORIGINATOR     = 

OBJECT_NAME    = SL-3 R/B
OBJECT_ID      = 1981-046B
CENTER_NAME    = EARTH
REF_FRAME      = TEME
TIME_SYSTEM    = UTC
MEAN_ELEMENT_THEORY = SGP/SGP4

EPOCH          = 2025-12-13T06:42:13.819968
MEAN_MOTION    = 15.39624923
ECCENTRICITY   = .00187854
INCLINATION    = 81.2333
RA_OF_ASC_NODE = 33.2926
ARG_OF_PERICENTER = 322.4476
MEAN_ANOMALY   = 37.5452

EPHEMERIS_TYPE = 0
CLASSIFICATION_TYPE = U
NORAD_CAT_ID   = 12465
ELEMENT_SET_NO = 999
REV_AT_EPOCH   = 42512
BSTAR          = .42648933E-3
MEAN_MOTION_DOT = .16952E-3
MEAN_MOTION_DDOT = 0

CCSDS_OMM_VERS = 2.0
CREATION_DATE  = 
ORIGINATOR     = 

OBJECT_NAME    = SL-3 R/B
OBJECT_ID      = 1981-103B
CENTER_NAME    = EARTH
REF_FRAME      = TEME
TIME_SYSTEM    = UTC
MEAN_ELEMENT_THEORY = SGP/SGP4

EPOCH          = 2025-12-13T07:38:15.879840
MEAN_MOTION    = 15.20246047
ECCENTRICITY   = .00117531
INCLINATION    = 81.1592
RA_OF_ASC_NODE = 314.6763
ARG_OF_PERICENTER = 210.9051
MEAN_ANOMALY   = 149.1489

EPHEMERIS_TYPE = 0
CLASSIFICATION_TYPE = U
NORAD_CAT_ID   = 12904
ELEMENT_SET_NO = 999
REV_AT_EPOCH   = 96010
BSTAR          = .46796369E-3
MEAN_MOTION_DOT = .10196E-3
MEAN_MOTION_DDOT = 0

CCSDS_OMM_VERS = 2.0
CREATION_DATE  = 
ORIGINATOR     = 

OBJECT_NAME    = SL-3 R/B
OBJECT_ID      = 1982-013B
CENTER_NAME    = EARTH
REF_FRAME      = TEME
TIME_SYSTEM    = UTC
MEAN_ELEMENT_THEORY = SGP/SGP4

EPOCH          = 2025-12-13T05:39:04.544064
MEAN_MOTION    = 15.21095315
ECCENTRICITY   = .00240467
INCLINATION    = 81.1750
RA_OF_ASC_NODE = 262.0293
ARG_OF_PERICENTER = 109.2388
MEAN_ANOMALY   = 251.1448

EPHEMERIS_TYPE = 0
CLASSIFICATION_TYPE = U
NORAD_CAT_ID   = 13068
ELEMENT_SET_NO = 999
REV_AT_EPOCH   = 39120
BSTAR          = .34761242E-3
MEAN_MOTION_DOT = .7816E-4
MEAN_MOTION_DDOT = 0

CCSDS_OMM_VERS = 2.0
CREATION_DATE  = 
ORIGINATOR     = 

OBJECT_NAME    = SL-3 R/B
OBJECT_ID      = 1982-039B
CENTER_NAME    = EARTH
REF_FRAME      = TEME
TIME_SYSTEM    = UTC
MEAN_ELEMENT_THEORY = SGP/SGP4

EPOCH          = 2025-12-13T07:15:06.897024
MEAN_MOTION    = 15.09533234
ECCENTRICITY   = .00296406
INCLINATION    = 81.1718
RA_OF_ASC_NODE = 315.4504
ARG_OF_PERICENTER = 250.4182
MEAN_ANOMALY   = 109.3843

EPHEMERIS_TYPE = 0
CLASSIFICATION_TYPE = U
NORAD_CAT_ID   = 13154
ELEMENT_SET_NO = 999
REV_AT_EPOCH   = 36860
BSTAR          = .31590588E-3
MEAN_MOTION_DOT = .5141E-4
MEAN_MOTION_DDOT = 0

